IRIDIUM 36              
1 24967U 97056C   24122.88065288  .00000602  00000+0  19741-3 0  9993
2 24967  86.3982 345.7414 0001997  87.4152 272.7274 14.36760457393141
IRIDIUM 38              
1 25043U 97069E   24122.76352962  .00000723  00000+0  23646-3 0  9991
2 25043  86.3989  46.1605 0003202  52.4305 307.7183 14.37213871386842
IRIDIUM 42              
1 25077U 97077A   24122.76145741  .00000649  00000+0  21893-3 0  9991
2 25077  86.3986  51.8263 0002635  73.6437 286.5049 14.35518141382150
IRIDIUM 44              
1 25078U 97077B   24122.49793792  .00000707  00000+0  22137-3 0  9994
2 25078  86.3998  34.9706 0001310  32.0010 328.1268 14.39349027384497
IRIDIUM 45              
1 25104U 97082A   24122.73923382  .00014273  00000+0  80931-3 0  9996
2 25104  86.3739 244.0246 0163666  48.8758 312.6469 15.02080465389888
IRIDIUM 51              
1 25262U 98018A   24122.80548175  .00011698  00000+0  55688-3 0  9991
2 25262  86.3955 253.9493 0148494 354.3089   5.6452 15.09673837384637
